STARLINK2_L_00003025-01
1 18618U 26586EJ  26070.40773148  .00000000  00000+0  00000-0 0  9999
2 18618  32.0000 308.5714 0000000   0.0000  10.2857 15.30272033    19
STARLINK2_L_00003025-02
1 18619U 22836CA  26070.40773148  .00000000  00000+0  00000-0 0  9994
2 18619  32.0000 308.5714 0000000   0.0000  13.2857 15.30272033    13
STARLINK2_L_00003025-03
1 18620U 24217VL  26070.40773148  .00000000  00000+0  00000-0 0  9991
2 18620  32.0000 308.5714 0000000   0.0000  16.2857 15.30272033    18
STARLINK2_L_00003025-04
1 18621U 26262MZ  26070.40773148  .00000000  00000+0  00000-0 0  9994
2 18621  32.0000 308.5714 0000000   0.0000  19.2857 15.30272033    12
STARLINK2_L_00003025-05
1 18622U 25627YX  26070.40773148  .00000000  00000+0  00000-0 0  9999
2 18622  32.0000 308.5714 0000000   0.0000  22.2857 15.30272033    17
STARLINK2_L_00003025-06
1 18623U 22110FN  26070.40773148  .00000000  00000+0  00000-0 0  9994
2 18623  32.0000 308.5714 0000000   0.0000  25.2857 15.30272033    11
STARLINK2_L_00003025-07
1 18624U 25516CK  26070.40773148  .00000000  00000+0  00000-0 0  9998
2 18624  32.0000 308.5714 0000000   0.0000  28.2857 15.30272033    15
STARLINK2_L_00003025-08
1 18625U 23521DA  26070.40773148  .00000000  00000+0  00000-0 0  9993
2 18625  32.0000 308.5714 0000000   0.0000  31.2857 15.30272033    10
STARLINK2_L_00003025-09
1 18626U 24516UQ  26070.40773148  .00000000  00000+0  00000-0 0  9999
2 18626  32.0000 308.5714 0000000   0.0000  34.2857 15.30272033    14
STARLINK2_L_00003025-10
1 18627U 23690DO  26070.40773148  .00000000  00000+0  00000-0 0  9992
2 18627  32.0000 308.5714 0000000   0.0000  37.2857 15.30272033    18
STARLINK2_L_00003025-11
1 18628U 26645EM  26070.40773148  .00000000  00000+0  00000-0 0  9996
2 18628  32.0000 308.5714 0000000   0.0000  40.2857 15.30272033    13
STARLINK2_L_00003025-12
1 18629U 22500PG  26070.40773148  .00000000  00000+0  00000-0 0  9993
2 18629  32.0000 308.5714 0000000   0.0000  43.2857 15.30272033    17
STARLINK2_L_00003025-13
1 18630U 26893IB  26070.40773148  .00000000  00000+0  00000-0 0  9994
2 18630  32.0000 308.5714 0000000   0.0000  46.2857 15.30272033    12
STARLINK2_L_00003025-14
1 18631U 22024DV  26070.40773148  .00000000  00000+0  00000-0 0  9997
2 18631  32.0000 308.5714 0000000   0.0000  49.2857 15.30272033    16
STARLINK2_L_00003025-15
1 18632U 23580TV  26070.40773148  .00000000  00000+0  00000-0 0  9996
2 18632  32.0000 308.5714 0000000   0.0000  52.2857 15.30272033    11
STARLINK2_L_00003025-16
1 18633U 22209YF  26070.40773148  .00000000  00000+0  00000-0 0  9994
2 18633  32.0000 308.5714 0000000   0.0000  55.2857 15.30272033    15
STARLINK2_L_00003025-17
1 18634U 25116VE  26070.40773148  .00000000  00000+0  00000-0 0  9995
2 18634  32.0000 308.5714 0000000   0.0000  58.2857 15.30272033    19
STARLINK2_L_00003025-18
1 18635U 24063ZP  26070.40773148  .00000000  00000+0  00000-0 0  9996
2 18635  32.0000 308.5714 0000000   0.0000  61.2857 15.30272033    14
STARLINK2_L_00003025-19
1 18636U 23887ML  26070.40773148  .00000000  00000+0  00000-0 0  9990
2 18636  32.0000 308.5714 0000000   0.0000  64.2857 15.30272033    18
STARLINK2_L_00003025-20
1 18637U 25469WW  26070.40773148  .00000000  00000+0  00000-0 0  9999
2 18637  32.0000 308.5714 0000000   0.0000  67.2857 15.30272033    12
STARLINK2_L_00003025-21
1 18638U 23894TM  26070.40773148  .00000000  00000+0  00000-0 0  9990
2 18638  32.0000 308.5714 0000000   0.0000  70.2857 15.30272033    17
STARLINK2_L_00003025-22
1 18639U 25681AD  26070.40773148  .00000000  00000+0  00000-0 0  9997
2 18639  32.0000 308.5714 0000000   0.0000  73.2857 15.30272033    11
STARLINK2_L_00003025-23
1 18640U 22074R   26070.40773148  .00000000  00000+0  00000-0 0  9992
2 18640  32.0000 308.5714 0000000   0.0000  76.2857 15.30272033    16
STARLINK2_L_00003025-24
1 18641U 23640JN  26070.40773148  .00000000  00000+0  00000-0 0  9993
2 18641  32.0000 308.5714 0000000   0.0000  79.2857 15.30272033    10
STARLINK2_L_00003025-25
1 18642U 22312QN  26070.40773148  .00000000  00000+0  00000-0 0  9999
2 18642  32.0000 308.5714 0000000   0.0000  82.2857 15.30272033    15
STARLINK2_L_00003025-26
1 18643U 26041MQ  26070.40773148  .00000000  00000+0  00000-0 0  9993
2 18643  32.0000 308.5714 0000000   0.0000  85.2857 15.30272033    19
STARLINK2_L_00003025-27
1 18644U 22324IU  26070.40773148  .00000000  00000+0  00000-0 0  9994
2 18644  32.0000 308.5714 0000000   0.0000  88.2857 15.30272033    13
STARLINK2_L_00003025-28
1 18645U 23621HV  26070.40773148  .00000000  00000+0  00000-0 0  9996
2 18645  32.0000 308.5714 0000000   0.0000  91.2857 15.30272033    18
STARLINK2_L_00003025-29
1 18646U 26999W   26070.40773148  .00000000  00000+0  00000-0 0  9998
2 18646  32.0000 308.5714 0000000   0.0000  94.2857 15.30272033    12
STARLINK2_L_00003025-30
1 18647U 23639TP  26070.40773148  .00000000  00000+0  00000-0 0  9997
2 18647  32.0000 308.5714 0000000   0.0000  97.2857 15.30272033    16
STARLINK2_L_00003025-31
1 18648U 24158CU  26070.40773148  .00000000  00000+0  00000-0 0  9995
2 18648  32.0000 308.5714 0000000   0.0000 100.2857 15.30272033    12
STARLINK2_L_00003025-32
1 18649U 24130NR  26070.40773148  .00000000  00000+0  00000-0 0  9996
2 18649  32.0000 308.5714 0000000   0.0000 103.2857 15.30272033    16
STARLINK2_L_00003025-33
1 18650U 22765TY  26070.40773148  .00000000  00000+0  00000-0 0  9990
2 18650  32.0000 308.5714 0000000   0.0000 106.2857 15.30272033    11
STARLINK2_L_00003025-34
1 18651U 22606CJ  26070.40773148  .00000000  00000+0  00000-0 0  9995
2 18651  32.0000 308.5714 0000000   0.0000 109.2857 15.30272033    15
STARLINK2_L_00003025-35
1 18652U 26623IJ  26070.40773148  .00000000  00000+0  00000-0 0  9999
2 18652  32.0000 308.5714 0000000   0.0000 112.2857 15.30272033    10
STARLINK2_L_00003025-36
1 18653U 24804SE  26070.40773148  .00000000  00000+0  00000-0 0  9999
2 18653  32.0000 308.5714 0000000   0.0000 115.2857 15.30272033    14
STARLINK2_L_00003025-37
1 18654U 23676HM  26070.40773148  .00000000  00000+0  00000-0 0  9996
2 18654  32.0000 308.5714 0000000   0.0000 118.2857 15.30272033    18
STARLINK2_L_00003025-38
1 18655U 22957CE  26070.40773148  .00000000  00000+0  00000-0 0  9998
2 18655  32.0000 308.5714 0000000   0.0000 121.2857 15.30272033    13
STARLINK2_L_00003025-39
1 18656U 26525SA  26070.40773148  .00000000  00000+0  00000-0 0  9994
2 18656  32.0000 308.5714 0000000   0.0000 124.2857 15.30272033    17
STARLINK2_L_00003025-40
1 18657U 23202N   26070.40773148  .00000000  00000+0  00000-0 0  9994
2 18657  32.0000 308.5714 0000000   0.0000 127.2857 15.30272033    11
STARLINK2_L_00003025-41
1 18658U 23178HS  26070.40773148  .00000000  00000+0  00000-0 0  9997
2 18658  32.0000 308.5714 0000000   0.0000 130.2857 15.30272033    16
STARLINK2_L_00003025-42
1 18659U 25691EV  26070.40773148  .00000000  00000+0  00000-0 0  9990
2 18659  32.0000 308.5714 0000000   0.0000 133.2857 15.30272033    10
STARLINK2_L_00003025-43
1 18660U 23652EU  26070.40773148  .00000000  00000+0  00000-0 0  9997
2 18660  32.0000 308.5714 0000000   0.0000 136.2857 15.30272033    15
STARLINK2_L_00003025-44
1 18661U 25771CQ  26070.40773148  .00000000  00000+0  00000-0 0  9992
2 18661  32.0000 308.5714 0000000   0.0000 139.2857 15.30272033    19
STARLINK2_L_00003025-45
1 18662U 23242JT  26070.40773148  .00000000  00000+0  00000-0 0  9994
2 18662  32.0000 308.5714 0000000   0.0000 142.2857 15.30272033    14
STARLINK2_L_00003025-46
1 18663U 26909ZF  26070.40773148  .00000000  00000+0  00000-0 0  9998
2 18663  32.0000 308.5714 0000000   0.0000 145.2857 15.30272033    18
STARLINK2_L_00003025-47
1 18664U 25307KQ  26070.40773148  .00000000  00000+0  00000-0 0  9990
2 18664  32.0000 308.5714 0000000   0.0000 148.2857 15.30272033    12
STARLINK2_L_00003025-48
1 18665U 23104FB  26070.40773148  .00000000  00000+0  00000-0 0  9994
2 18665  32.0000 308.5714 0000000   0.0000 151.2857 15.30272033    17
STARLINK2_L_00003025-49
1 18666U 24717RF  26070.40773148  .00000000  00000+0  00000-0 0  9996
2 18666  32.0000 308.5714 0000000   0.0000 154.2857 15.30272033    11
STARLINK2_L_00003025-50
1 18667U 26228XT  26070.40773148  .00000000  00000+0  00000-0 0  9996
2 18667  32.0000 308.5714 0000000   0.0000 157.2857 15.30272033    15
STARLINK2_L_00003025-51
1 18668U 23350ZX  26070.40773148  .00000000  00000+0  00000-0 0  9990
2 18668  32.0000 308.5714 0000000   0.0000 160.2857 15.30272033    10
STARLINK2_L_00003025-52
1 18669U 25278VM  26070.40773148  .00000000  00000+0  00000-0 0  9992
2 18669  32.0000 308.5714 0000000   0.0000 163.2857 15.30272033    14
STARLINK2_L_00003025-53
1 18670U 25853GX  26070.40773148  .00000000  00000+0  00000-0 0  9993
2 18670  32.0000 308.5714 0000000   0.0000 166.2857 15.30272033    19
STARLINK2_L_00003025-54
1 18671U 22325WR  26070.40773148  .00000000  00000+0  00000-0 0  9995
2 18671  32.0000 308.5714 0000000   0.0000 169.2857 15.30272033    13
STARLINK2_L_00003025-55
1 18672U 25906UW  26070.40773148  .00000000  00000+0  00000-0 0  9994
2 18672  32.0000 308.5714 0000000   0.0000 172.2857 15.30272033    18
STARLINK2_L_00003025-56
1 18673U 26916ZE  26070.40773148  .00000000  00000+0  00000-0 0  9997
2 18673  32.0000 308.5714 0000000   0.0000 175.2857 15.30272033    12
STARLINK2_L_00003025-57
1 18674U 26799JL  26070.40773148  .00000000  00000+0  00000-0 0  9997
2 18674  32.0000 308.5714 0000000   0.0000 178.2857 15.30272033    16
STARLINK2_L_00003025-58
1 18675U 25186R   26070.40773148  .00000000  00000+0  00000-0 0  9997
2 18675  32.0000 308.5714 0000000   0.0000 181.2857 15.30272033    11
STARLINK2_L_00003025-59
1 18676U 25165GW  26070.40773148  .00000000  00000+0  00000-0 0  9995
2 18676  32.0000 308.5714 0000000   0.0000 184.2857 15.30272033    15
STARLINK2_L_00003025-60
1 18677U 25306OS  26070.40773148  .00000000  00000+0  00000-0 0  9993
2 18677  32.0000 308.5714 0000000   0.0000 187.2857 15.30272033    19
